FLOCK 4H-34             
1 66737U 25276BZ  26196.15145580  .00004173  00000+0  19220-3 0  9995
2 66737  97.4231 269.5645 0002565 169.8607 190.2680 15.20838277 33936
FLOCK 4H-35             
1 66738U 25276CA  26196.19299275  .00003538  00000+0  16287-3 0  9995
2 66738  97.4192 269.5432 0002577 152.7589 207.3782 15.20954789 33985
FLOCK 4H-36             
1 66739U 25276CB  26196.16573527  .00004056  00000+0  18754-3 0  9995
2 66739  97.4240 269.5712 0002435 183.8600 176.2617 15.20719393 34682
