{"fetched_at":"2026-07-15T17:46:48.171Z","source":"https://celestrak.org/NORAD/elements/gp.php?GROUP=planet&FORMAT=JSON","constellation":"superdove","records":[{"OBJECT_NAME":"FLOCK 4H-34","OBJECT_ID":"2025-276BZ","EPOCH":"2026-07-15T03:38:05.781120","CLASSIFICATION_TYPE":"U","MEAN_MOTION":15.20838277,"ECCENTRICITY":0.0002565,"INCLINATION":97.4231,"RA_OF_ASC_NODE":269.5645,"ARG_OF_PERICENTER":169.8607,"MEAN_ANOMALY":190.268,"EPHEMERIS_TYPE":0,"NORAD_CAT_ID":66737,"ELEMENT_SET_NO":999,"REV_AT_EPOCH":3393,"BSTAR":0.0001922,"MEAN_MOTION_DOT":0.00004173,"MEAN_MOTION_DDOT":0},{"OBJECT_NAME":"FLOCK 4H-35","OBJECT_ID":"2025-276CA","EPOCH":"2026-07-15T04:37:54.573600","CLASSIFICATION_TYPE":"U","MEAN_MOTION":15.20954789,"ECCENTRICITY":0.0002577,"INCLINATION":97.4192,"RA_OF_ASC_NODE":269.5432,"ARG_OF_PERICENTER":152.7589,"MEAN_ANOMALY":207.3782,"EPHEMERIS_TYPE":0,"NORAD_CAT_ID":66738,"ELEMENT_SET_NO":999,"REV_AT_EPOCH":3398,"BSTAR":0.00016287,"MEAN_MOTION_DOT":0.00003538,"MEAN_MOTION_DDOT":0},{"OBJECT_NAME":"FLOCK 4H-36","OBJECT_ID":"2025-276CB","EPOCH":"2026-07-15T03:58:39.527328","CLASSIFICATION_TYPE":"U","MEAN_MOTION":15.20719393,"ECCENTRICITY":0.0002435,"INCLINATION":97.424,"RA_OF_ASC_NODE":269.5712,"ARG_OF_PERICENTER":183.86,"MEAN_ANOMALY":176.2617,"EPHEMERIS_TYPE":0,"NORAD_CAT_ID":66739,"ELEMENT_SET_NO":999,"REV_AT_EPOCH":3468,"BSTAR":0.00018754,"MEAN_MOTION_DOT":0.00004056,"MEAN_MOTION_DDOT":0}]}
